{"type": "FeatureCollection", "features": [ {"type": "Feature", "properties": {"norad_id": 66580, "name": "STARLINK-35872", "group": "last-30-days", "lat": -21.711852033165282, "lon": -72.86816605505543, "alt_km": 416.303826491976, "timestamp": "2025-12-19T10:49:59.921789+00:00", "meta": {"OBJECT_NAME": "STARLINK-35872", "OBJECT_ID": "2025-268Z", "EPOCH": "2025-12-18T15:22:09.530112", "MEAN_MOTION": 15.50605765, "ECCENTRICITY": 0.00018805, "INCLINATION": 43.001, "RA_OF_ASC_NODE": 86.5812, "ARG_OF_PERICENTER": 278.6128, "MEAN_ANOMALY": 81.4519, "EPHEMERIS_TYPE": 0, "CLASSIFICATION_TYPE": "U", "NORAD_CAT_ID": 66580, "ELEMENT_SET_NO": 999, "REV_AT_EPOCH": 554, "BSTAR": 0.0012151281, "MEAN_MOTION_DOT": 0.00071669, "MEAN_MOTION_DDOT": 0}, "tle": {"line1": "1 66580U 25268Z   25352.64038808  .00071669  00000+0  12151-2 0  9992", "line2": "2 66580  43.0010  86.5812 0001880 278.6128  81.4519 15.50605765  5548"}}, "geometry": {"type": "Point", "coordinates": [-72.86816605505543, -21.711852033165282]}}, {"type": "Feature", "properties": {"norad_id": 66581, "name": "STARLINK-35744", "group": "last-30-days", "lat": -22.938331422175924, "lon": -71.16112432771314, "alt_km": 416.3390909430673, "timestamp": "2025-12-19T10:49:59.921800+00:00", "meta": {"OBJECT_NAME": "STARLINK-35744", "OBJECT_ID": "2025-268AA", "EPOCH": "2025-12-18T13:48:54.537408", "MEAN_MOTION": 15.50621121, "ECCENTRICITY": 0.00010911, "INCLINATION": 43.0015, "RA_OF_ASC_NODE": 86.9541, "ARG_OF_PERICENTER": 264.1804, "MEAN_ANOMALY": 95.8932, "EPHEMERIS_TYPE": 0, "CLASSIFICATION_TYPE": "U", "NORAD_CAT_ID": 66581, "ELEMENT_SET_NO": 999, "REV_AT_EPOCH": 553, "BSTAR": 0.0011663597, "MEAN_MOTION_DOT": 0.00068789, "MEAN_MOTION_DDOT": 0}, "tle": {"line1": "1 66581U 25268AA  25352.57563122  .00068789  00000+0  11664-2 0  9994", "line2": "2 66581  43.0015  86.9541 0001091 264.1804  95.8932 15.50621121  5533"}}, "geometry": {"type": "Point", "coordinates": [-71.16112432771314, -22.938331422175924]}}, {"type": "Feature", "properties": {"norad_id": 66582, "name": "STARLINK-35746", "group": "last-30-days", "lat": -24.033904505712094, "lon": -69.58578802382033, "alt_km": 416.41303950018573, "timestamp": "2025-12-19T10:49:59.921809+00:00", "meta": {"OBJECT_NAME": "STARLINK-35746", "OBJECT_ID": "2025-268AB", "EPOCH": "2025-12-18T15:21:10.244160", "MEAN_MOTION": 15.5060137, "ECCENTRICITY": 0.00019491, "INCLINATION": 43.0014, "RA_OF_ASC_NODE": 86.5742, "ARG_OF_PERICENTER": 279.2484, "MEAN_ANOMALY": 80.8155, "EPHEMERIS_TYPE": 0, "CLASSIFICATION_TYPE": "U", "NORAD_CAT_ID": 66582, "ELEMENT_SET_NO": 999, "REV_AT_EPOCH": 554, "BSTAR": 0.0012336655, "MEAN_MOTION_DOT": 0.00072767, "MEAN_MOTION_DDOT": 0}, "tle": {"line1": "1 66582U 25268AB  25352.63970190  .00072767  00000+0  12337-2 0  9998", "line2": "2 66582  43.0014  86.5742 0001949 279.2484  80.8155 15.50601370  5541"}}, "geometry": {"type": "Point", "coordinates": [-69.58578802382033, -24.033904505712094]}}, {"type": "Feature", "properties": {"norad_id": 66583, "name": "STARLINK-35941", "group": "last-30-days", "lat": -25.219670936546994, "lon": -67.8196378385427, "alt_km": 415.73946163112396, "timestamp": "2025-12-19T10:49:59.921820+00:00", "meta": {"OBJECT_NAME": "STARLINK-35941", "OBJECT_ID": "2025-268AC", "EPOCH": "2025-12-18T13:47:55.292064", "MEAN_MOTION": 15.5059531, "ECCENTRICITY": 0.00036374, "INCLINATION": 42.9999, "RA_OF_ASC_NODE": 86.949, "ARG_OF_PERICENTER": 277.8009, "MEAN_ANOMALY": 82.2438, "EPHEMERIS_TYPE": 0, "CLASSIFICATION_TYPE": "U", "NORAD_CAT_ID": 66583, "ELEMENT_SET_NO": 999, "REV_AT_EPOCH": 553, "BSTAR": 0.0019257968, "MEAN_MOTION_DOT": 0.00114384, "MEAN_MOTION_DDOT": 0}, "tle": {"line1": "1 66583U 25268AC  25352.57494551  .00114384  00000+0  19258-2 0  9995", "line2": "2 66583  42.9999  86.9490 0003637 277.8009  82.2438 15.50595310  5534"}}, "geometry": {"type": "Point", "coordinates": [-67.8196378385427, -25.219670936546994]}}, {"type": "Feature", "properties": {"norad_id": 66584, "name": "STARLINK-35939", "group": "last-30-days", "lat": -26.361037004416055, "lon": -66.05873071331325, "alt_km": 416.2915093764241, "timestamp": "2025-12-19T10:49:59.921833+00:00", "meta": {"OBJECT_NAME": "STARLINK-35939", "OBJECT_ID": "2025-268AD", "EPOCH": "2025-12-18T13:47:25.569600", "MEAN_MOTION": 15.50609081, "ECCENTRICITY": 0.00021101, "INCLINATION": 42.9997, "RA_OF_ASC_NODE": 86.9444, "ARG_OF_PERICENTER": 279.7649, "MEAN_ANOMALY": 80.2973, "EPHEMERIS_TYPE": 0, "CLASSIFICATION_TYPE": "U", "NORAD_CAT_ID": 66584, "ELEMENT_SET_NO": 999, "REV_AT_EPOCH": 553, "BSTAR": 0.0016835386, "MEAN_MOTION_DOT": 0.00099801, "MEAN_MOTION_DDOT": 0}, "tle": {"line1": "1 66584U 25268AD  25352.57460150  .00099801  00000+0  16835-2 0  9998", "line2": "2 66584  42.9997  86.9444 0002110 279.7649  80.2973 15.50609081  5531"}}, "geometry": {"type": "Point", "coordinates": [-66.05873071331325, -26.361037004416055]}}, {"type": "Feature", "properties": {"norad_id": 66585, "name": "STARLINK-35963", "group": "last-30-days", "lat": -27.410328557386034, "lon": -64.37517311279265, "alt_km": 416.39698718601267, "timestamp": "2025-12-19T10:49:59.921843+00:00", "meta": {"OBJECT_NAME": "STARLINK-35963", "OBJECT_ID": "2025-268AE", "EPOCH": "2025-12-18T15:19:41.296224", "MEAN_MOTION": 15.5060925, "ECCENTRICITY": 0.00020184, "INCLINATION": 43.0005, "RA_OF_ASC_NODE": 86.5665, "ARG_OF_PERICENTER": 276.3175, "MEAN_ANOMALY": 83.7456, "EPHEMERIS_TYPE": 0, "CLASSIFICATION_TYPE": "U", "NORAD_CAT_ID": 66585, "ELEMENT_SET_NO": 999, "REV_AT_EPOCH": 554, "BSTAR": 0.0013710152, "MEAN_MOTION_DOT": 0.00081015, "MEAN_MOTION_DDOT": 0}, "tle": {"line1": "1 66585U 25268AE  25352.63867241  .00081015  00000+0  13710-2 0  9995", "line2": "2 66585  43.0005  86.5665 0002018 276.3175  83.7456 15.50609250  5542"}}, "geometry": {"type": "Point", "coordinates": [-64.37517311279265, -27.410328557386034]}}, {"type": "Feature", "properties": {"norad_id": 66586, "name": "TJS-21", "group": "last-30-days", "lat": 62.975071528547126, "lon": -99.61994765029826, "alt_km": 37992.628009024535, "timestamp": "2025-12-19T10:49:59.921857+00:00", "meta": {"OBJECT_NAME": "TJS-21", "OBJECT_ID": "2025-269A", "EPOCH": "2025-12-17T17:02:22.041312", "MEAN_MOTION": 2.0057908, "ECCENTRICITY": 0.68067044, "INCLINATION": 63.2727, "RA_OF_ASC_NODE": 161.8266, "ARG_OF_PERICENTER": 269.7474, "MEAN_ANOMALY": 18.6658, "EPHEMERIS_TYPE": 0, "CLASSIFICATION_TYPE": "U", "NORAD_CAT_ID": 66586, "ELEMENT_SET_NO": 999, "REV_AT_EPOCH": 53, "BSTAR": -0.056704564, "MEAN_MOTION_DOT": 1.088e-05, "MEAN_MOTION_DDOT": 0}, "tle": {"line1": "1 66586U 25269A   25351.70997733  .00001088  00000+0 -56705-1 0  9997", "line2": "2 66586  63.2727 161.8266 6806704 269.7474  18.6658  2.00579080   533"}}, "geometry": {"type": "Point", "coordinates": [-99.61994765029826, 62.975071528547126]}}, {"type": "Feature", "properties": {"norad_id": 66587, "name": "CZ-3B R/B", "group": "last-30-days", "lat": 45.44356157204039, "lon": -137.41572255056406, "alt_km": 34725.42937543318, "timestamp": "2025-12-19T10:49:59.921872+00:00", "meta": {"OBJECT_NAME": "CZ-3B R/B", "OBJECT_ID": "2025-269B", "EPOCH": "2025-12-18T04:21:45.908640", "MEAN_MOTION": 2.0405465, "ECCENTRICITY": 0.75166459, "INCLINATION": 51.3412, "RA_OF_ASC_NODE": 168.3764, "ARG_OF_PERICENTER": 229.6756, "MEAN_ANOMALY": 36.1575, "EPHEMERIS_TYPE": 0, "CLASSIFICATION_TYPE": "U", "NORAD_CAT_ID": 66587, "ELEMENT_SET_NO": 999, "REV_AT_EPOCH": 56, "BSTAR": 0.00058948144, "MEAN_MOTION_DOT": 0.0008861, "MEAN_MOTION_DDOT": -1.447425e-06}, "tle": {"line1": "1 66587U 25269B   25352.18178135  .00088610 -14474-5  58948-3 0  9993", "line2": "2 66587  51.3412 168.3764 7516645 229.6756  36.1575  2.04054650   560"}}, "geometry": {"type": "Point", "coordinates": [-137.41572255056406, 45.44356157204039]}}, {"type": "Feature", "properties": {"norad_id": 66588, "name": "STARLINK-36076", "group": "last-30-days", "lat": -15.346409535846359, "lon": -8.76740512873836, "alt_km": 444.8859760496025, "timestamp": "2025-12-19T10:49:59.921884+00:00", "meta": {"OBJECT_NAME": "STARLINK-36076", "OBJECT_ID": "2025-270A", "EPOCH": "2025-12-18T21:30:37.664064", "MEAN_MOTION": 15.40723849, "ECCENTRICITY": 0.00017346, "INCLINATION": 42.9987, "RA_OF_ASC_NODE": 157.3036, "ARG_OF_PERICENTER": 262.7406, "MEAN_ANOMALY": 97.3253, "EPHEMERIS_TYPE": 0, "CLASSIFICATION_TYPE": "U", "NORAD_CAT_ID": 66588, "ELEMENT_SET_NO": 999, "REV_AT_EPOCH": 529, "BSTAR": 0.00064619522, "MEAN_MOTION_DOT": 0.00026806, "MEAN_MOTION_DDOT": 0}, "tle": {"line1": "1 66588U 25270A   25352.89626926  .00026806  00000+0  64620-3 0  9996", "line2": "2 66588  42.9987 157.3036 0001734 262.7406  97.3253 15.40723849  5299"}}, "geometry": {"type": "Point", "coordinates": [-8.76740512873836, -15.346409535846359]}}, {"type": "Feature", "properties": {"norad_id": 66589, "name": "STARLINK-35447", "group": "last-30-days", "lat": -35.24607984603803, "lon": 104.54755171430125, "alt_km": 445.7860440626555, "timestamp": "2025-12-19T10:49:59.921908+00:00", "meta": {"OBJECT_NAME": "STARLINK-35447", "OBJECT_ID": "2025-270B", "EPOCH": "2025-12-19T00:00:02.000160", "MEAN_MOTION": 15.40698327, "ECCENTRICITY": 0.00016243, "INCLINATION": 42.9993, "RA_OF_ASC_NODE": 156.4658, "ARG_OF_PERICENTER": 293.4382, "MEAN_ANOMALY": 22.2483, "EPHEMERIS_TYPE": 0, "CLASSIFICATION_TYPE": "U", "NORAD_CAT_ID": 66589, "ELEMENT_SET_NO": 999, "REV_AT_EPOCH": 551, "BSTAR": 0.0016228969, "MEAN_MOTION_DOT": 0.00068093, "MEAN_MOTION_DDOT": 0}, "tle": {"line1": "1 66589U 25270B   25353.00002315  .00068093  00000+0  16229-2 0  9996", "line2": "2 66589  42.9993 156.4658 0001624 293.4382  22.2483 15.40698327  5518"}}, "geometry": {"type": "Point", "coordinates": [104.54755171430125, -35.24607984603803]}}]}